HERMES-2                
1 63243U 25052AK  26068.27360868  .00009493  00000+0  34986-3 0  9991
2 63243  97.4005 323.8424 0006347 101.0389 259.1564 15.28007620 54757
STARLINK-36553          
1 67506U 26012P   26067.43184758  .00034993  00000+0  12736-2 0  9994
2 67506  43.0036 321.1396 0001586 268.3746  91.6924 15.27617833  7576
