OBJECT_NAME,OBJECT_ID,EPOCH,MEAN_MOTION,ECCENTRICITY,INCLINATION,RA_OF_ASC_NODE,ARG_OF_PERICENTER,MEAN_ANOMALY,EPHEMERIS_TYPE,CLASSIFICATION_TYPE,NORAD_CAT_ID,ELEMENT_SET_NO,REV_AT_EPOCH,BSTAR,MEAN_MOTION_DOT,MEAN_MOTION_DDOT
HERMES-2,2025-052AK,2026-03-09T06:33:59.789952,15.28007620,.0006347,97.4005,323.8424,101.0389,259.1564,0,U,63243,999,5475,.34986E-3,.9493E-4,0
STARLINK-36553,2026-012P,2026-03-08T10:21:51.630912,15.27617833,.00015865,43.0036,321.1396,268.3746,91.6924,0,U,67506,999,757,.12736324E-2,.34993E-3,0
